{
  "type": "FeatureCollection",
  "features": [
    {"type":"Feature","properties":{"name":"Alabama"},"geometry":{"type":"Polygon","coordinates":[[[-88.47,30.22],[-84.89,30.22],[-84.89,35.00],[-88.47,35.00],[-88.47,30.22]]]}},
    {"type":"Feature","properties":{"name":"Alaska"},"geometry":{"type":"Polygon","coordinates":[[[-168.0,54.0],[-130.0,54.0],[-130.0,71.5],[-168.0,71.5],[-168.0,54.0]]]}},
    {"type":"Feature","properties":{"name":"Arizona"},"geometry":{"type":"Polygon","coordinates":[[[-114.82,31.33],[-109.04,31.33],[-109.04,37.00],[-114.82,37.00],[-114.82,31.33]]]}},
    {"type":"Feature","properties":{"name":"Arkansas"},"geometry":{"type":"Polygon","coordinates":[[[-94.62,33.00],[-89.64,33.00],[-89.64,36.50],[-94.62,36.50],[-94.62,33.00]]]}},
    {"type":"Feature","properties":{"name":"California"},"geometry":{"type":"Polygon","coordinates":[[[-124.41,32.53],[-117.00,32.53],[-114.13,34.00],[-114.63,35.00],[-120.00,38.50],[-124.41,42.01],[-124.41,32.53]]]}},
    {"type":"Feature","properties":{"name":"Colorado"},"geometry":{"type":"Polygon","coordinates":[[[-109.06,36.99],[-102.04,36.99],[-102.04,41.00],[-109.06,41.00],[-109.06,36.99]]]}},
    {"type":"Feature","properties":{"name":"Connecticut"},"geometry":{"type":"Polygon","coordinates":[[[-73.73,40.95],[-71.79,40.95],[-71.79,42.05],[-73.73,42.05],[-73.73,40.95]]]}},
    {"type":"Feature","properties":{"name":"Delaware"},"geometry":{"type":"Polygon","coordinates":[[[-75.79,38.45],[-74.98,38.45],[-74.98,39.84],[-75.79,39.84],[-75.79,38.45]]]}},
    {"type":"Feature","properties":{"name":"Florida"},"geometry":{"type":"Polygon","coordinates":[[[-87.63,30.00],[-82.00,30.00],[-80.03,24.40],[-81.50,24.40],[-87.63,30.00]]]}},
    {"type":"Feature","properties":{"name":"Georgia"},"geometry":{"type":"Polygon","coordinates":[[[-85.61,30.36],[-80.84,30.36],[-80.84,35.00],[-85.61,35.00],[-85.61,30.36]]]}},
    {"type":"Feature","properties":{"name":"Hawaii"},"geometry":{"type":"Polygon","coordinates":[[[-160.5,18.9],[-154.8,18.9],[-154.8,22.2],[-160.5,22.2],[-160.5,18.9]]]}},
    {"type":"Feature","properties":{"name":"Idaho"},"geometry":{"type":"Polygon","coordinates":[[[-117.24,41.99],[-111.04,41.99],[-111.04,49.00],[-117.24,49.00],[-117.24,41.99]]]}},
    {"type":"Feature","properties":{"name":"Illinois"},"geometry":{"type":"Polygon","coordinates":[[[-91.51,36.97],[-87.49,36.97],[-87.49,42.51],[-91.51,42.51],[-91.51,36.97]]]}},
    {"type":"Feature","properties":{"name":"Indiana"},"geometry":{"type":"Polygon","coordinates":[[[-88.10,37.77],[-84.78,37.77],[-84.78,41.76],[-88.10,41.76],[-88.10,37.77]]]}},
    {"type":"Feature","properties":{"name":"Iowa"},"geometry":{"type":"Polygon","coordinates":[[[-96.64,40.37],[-90.14,40.37],[-90.14,43.50],[-96.64,43.50],[-96.64,40.37]]]}},
    {"type":"Feature","properties":{"name":"Kansas"},"geometry":{"type":"Polygon","coordinates":[[[-102.05,36.99],[-94.59,36.99],[-94.59,40.00],[-102.05,40.00],[-102.05,36.99]]]}},
    {"type":"Feature","properties":{"name":"Kentucky"},"geometry":{"type":"Polygon","coordinates":[[[-89.57,36.50],[-81.96,36.50],[-81.96,39.15],[-89.57,39.15],[-89.57,36.50]]]}},
    {"type":"Feature","properties":{"name":"Louisiana"},"geometry":{"type":"Polygon","coordinates":[[[-94.04,28.93],[-88.82,28.93],[-88.82,33.02],[-94.04,33.02],[-94.04,28.93]]]}},
    {"type":"Feature","properties":{"name":"Maine"},"geometry":{"type":"Polygon","coordinates":[[[-71.08,43.06],[-66.95,43.06],[-66.95,47.46],[-71.08,47.46],[-71.08,43.06]]]}},
    {"type":"Feature","properties":{"name":"Maryland"},"geometry":{"type":"Polygon","coordinates":[[[-79.49,37.91],[-74.98,37.91],[-74.98,39.72],[-79.49,39.72],[-79.49,37.91]]]}},
    {"type":"Feature","properties":{"name":"Massachusetts"},"geometry":{"type":"Polygon","coordinates":[[[-73.51,41.23],[-69.93,41.23],[-69.93,42.89],[-73.51,42.89],[-73.51,41.23]]]}},
    {"type":"Feature","properties":{"name":"Michigan"},"geometry":{"type":"Polygon","coordinates":[[[-90.42,41.70],[-82.41,41.70],[-82.41,48.30],[-90.42,48.30],[-90.42,41.70]]]}},
    {"type":"Feature","properties":{"name":"Minnesota"},"geometry":{"type":"Polygon","coordinates":[[[-97.24,43.50],[-89.49,43.50],[-89.49,49.38],[-97.24,49.38],[-97.24,43.50]]]}},
    {"type":"Feature","properties":{"name":"Mississippi"},"geometry":{"type":"Polygon","coordinates":[[[-91.65,30.17],[-88.10,30.17],[-88.10,35.00],[-91.65,35.00],[-91.65,30.17]]]}},
    {"type":"Feature","properties":{"name":"Missouri"},"geometry":{"type":"Polygon","coordinates":[[[-95.77,35.99],[-89.10,35.99],[-89.10,40.61],[-95.77,40.61],[-95.77,35.99]]]}},
    {"type":"Feature","properties":{"name":"Montana"},"geometry":{"type":"Polygon","coordinates":[[[-116.05,44.36],[-104.04,44.36],[-104.04,49.00],[-116.05,49.00],[-116.05,44.36]]]}},
    {"type":"Feature","properties":{"name":"Nebraska"},"geometry":{"type":"Polygon","coordinates":[[[-104.05,40.00],[-95.31,40.00],[-95.31,43.00],[-104.05,43.00],[-104.05,40.00]]]}},
    {"type":"Feature","properties":{"name":"Nevada"},"geometry":{"type":"Polygon","coordinates":[[[-120.01,35.00],[-114.04,35.00],[-114.04,42.00],[-120.01,42.00],[-120.01,35.00]]]}},
    {"type":"Feature","properties":{"name":"New Hampshire"},"geometry":{"type":"Polygon","coordinates":[[[-72.56,42.70],[-70.61,42.70],[-70.61,45.31],[-72.56,45.31],[-72.56,42.70]]]}},
    {"type":"Feature","properties":{"name":"New Jersey"},"geometry":{"type":"Polygon","coordinates":[[[-75.56,38.93],[-73.89,38.93],[-73.89,41.36],[-75.56,41.36],[-75.56,38.93]]]}},
    {"type":"Feature","properties":{"name":"New Mexico"},"geometry":{"type":"Polygon","coordinates":[[[-109.05,31.33],[-103.00,31.33],[-103.00,37.00],[-109.05,37.00],[-109.05,31.33]]]}},
    {"type":"Feature","properties":{"name":"New York"},"geometry":{"type":"Polygon","coordinates":[[[-79.76,40.50],[-71.86,40.50],[-71.86,45.01],[-79.76,45.01],[-79.76,40.50]]]}},
    {"type":"Feature","properties":{"name":"North Carolina"},"geometry":{"type":"Polygon","coordinates":[[[-84.32,33.84],[-75.46,33.84],[-75.46,36.59],[-84.32,36.59],[-84.32,33.84]]]}},
    {"type":"Feature","properties":{"name":"North Dakota"},"geometry":{"type":"Polygon","coordinates":[[[-104.05,45.94],[-96.55,45.94],[-96.55,49.00],[-104.05,49.00],[-104.05,45.94]]]}},
    {"type":"Feature","properties":{"name":"Ohio"},"geometry":{"type":"Polygon","coordinates":[[[-84.82,38.40],[-80.52,38.40],[-80.52,42.32],[-84.82,42.32],[-84.82,38.40]]]}},
    {"type":"Feature","properties":{"name":"Oklahoma"},"geometry":{"type":"Polygon","coordinates":[[[-103.00,33.62],[-94.43,33.62],[-94.43,37.00],[-103.00,37.00],[-103.00,33.62]]]}},
    {"type":"Feature","properties":{"name":"Oregon"},"geometry":{"type":"Polygon","coordinates":[[[-124.57,41.99],[-116.46,41.99],[-116.46,46.24],[-124.57,46.24],[-124.57,41.99]]]}},
    {"type":"Feature","properties":{"name":"Pennsylvania"},"geometry":{"type":"Polygon","coordinates":[[[-80.52,39.72],[-74.69,39.72],[-74.69,42.27],[-80.52,42.27],[-80.52,39.72]]]}},
    {"type":"Feature","properties":{"name":"Rhode Island"},"geometry":{"type":"Polygon","coordinates":[[[-71.91,41.15],[-71.09,41.15],[-71.09,42.01],[-71.91,42.01],[-71.91,41.15]]]}},
    {"type":"Feature","properties":{"name":"South Carolina"},"geometry":{"type":"Polygon","coordinates":[[[-83.36,32.03],[-78.54,32.03],[-78.54,35.22],[-83.36,35.22],[-83.36,32.03]]]}},
    {"type":"Feature","properties":{"name":"South Dakota"},"geometry":{"type":"Polygon","coordinates":[[[-104.06,42.48],[-96.44,42.48],[-96.44,45.94],[-104.06,45.94],[-104.06,42.48]]]}},
    {"type":"Feature","properties":{"name":"Tennessee"},"geometry":{"type":"Polygon","coordinates":[[[-90.31,34.98],[-81.65,34.98],[-81.65,36.68],[-90.31,36.68],[-90.31,34.98]]]}},
    {"type":"Feature","properties":{"name":"Texas"},"geometry":{"type":"Polygon","coordinates":[[[-106.65,25.84],[-93.51,25.84],[-93.51,36.50],[-100.00,36.50],[-103.00,36.50],[-106.65,32.00],[-106.65,25.84]]]}},
    {"type":"Feature","properties":{"name":"Utah"},"geometry":{"type":"Polygon","coordinates":[[[-114.05,37.00],[-109.04,37.00],[-109.04,42.00],[-114.05,42.00],[-114.05,37.00]]]}},
    {"type":"Feature","properties":{"name":"Vermont"},"geometry":{"type":"Polygon","coordinates":[[[-73.44,42.73],[-71.50,42.73],[-71.50,45.02],[-73.44,45.02],[-73.44,42.73]]]}},
    {"type":"Feature","properties":{"name":"Virginia"},"geometry":{"type":"Polygon","coordinates":[[[-83.68,36.54],[-75.24,36.54],[-75.24,39.47],[-83.68,39.47],[-83.68,36.54]]]}},
    {"type":"Feature","properties":{"name":"Washington"},"geometry":{"type":"Polygon","coordinates":[[[-124.74,45.54],[-116.92,45.54],[-116.92,49.00],[-124.74,49.00],[-124.74,45.54]]]}},
    {"type":"Feature","properties":{"name":"West Virginia"},"geometry":{"type":"Polygon","coordinates":[[[-82.65,37.20],[-77.72,37.20],[-77.72,40.64],[-82.65,40.64],[-82.65,37.20]]]}},
    {"type":"Feature","properties":{"name":"Wisconsin"},"geometry":{"type":"Polygon","coordinates":[[[-92.89,42.49],[-86.81,42.49],[-86.81,47.08],[-92.89,47.08],[-92.89,42.49]]]}},
    {"type":"Feature","properties":{"name":"Wyoming"},"geometry":{"type":"Polygon","coordinates":[[[-111.06,40.99],[-104.05,40.99],[-104.05,45.00],[-111.06,45.00],[-111.06,40.99]]]}}
  ]
}
